{
  "type": "FeatureCollection",
  "features": [
    {
      "type": "Feature",
      "properties": {
        "norad_id": 66891,
        "name": "STARLINK-35855",
        "group": "last-30-days",
        "lat": -8.344761269335615,
        "lon": -144.786391379611,
        "alt_km": 348.9172120177127,
        "timestamp": "2025-12-21T16:47:53.451060+00:00",
        "meta_object_name": "STARLINK-35855",
        "meta_object_id": "2025-283P",
        "meta_epoch": "2025-12-21T12:00:02.000160",
        "meta_mean_motion": 15.74206033,
        "meta_eccentricity": 0.0001093,
        "meta_inclination": 53.1571,
        "meta_ra_of_asc_node": 29.8916,
        "meta_arg_of_pericenter": 94.7344,
        "meta_mean_anomaly": 42.0801,
        "meta_ephemeris_type": 0,
        "meta_classification_type": "U",
        "meta_norad_cat_id": 66891,
        "meta_element_set_no": 999,
        "meta_rev_at_epoch": 383,
        "meta_bstar": -0.00018099,
        "meta_mean_motion_dot": -0.0002707,
        "meta_mean_motion_ddot": 0,
        "tle_line1": "1 66891U 25283P   25355.50002315 -.00027070  00000+0 -18099-3 0  9993",
        "tle_line2": "2 66891  53.1571  29.8916 0001093  94.7344  42.0801 15.74206033  3833"
      },
      "geometry": {
        "type": "Point",
        "coordinates": [
          -144.786391379611,
          -8.344761269335615
        ]
      }
    },
    {
      "type": "Feature",
      "properties": {
        "norad_id": 66892,
        "name": "STARLINK-35883",
        "group": "last-30-days",
        "lat": -9.868431529387177,
        "lon": -143.61048390721314,
        "alt_km": 349.3510508171603,
        "timestamp": "2025-12-21T16:47:53.451070+00:00",
        "meta_object_name": "STARLINK-35883",
        "meta_object_id": "2025-283Q",
        "meta_epoch": "2025-12-21T12:00:02.000160",
        "meta_mean_motion": 15.74202013,
        "meta_eccentricity": 0.0001288,
        "meta_inclination": 53.1574,
        "meta_ra_of_asc_node": 29.8871,
        "meta_arg_of_pericenter": 80.4583,
        "meta_mean_anomaly": 58.2771,
        "meta_ephemeris_type": 0,
        "meta_classification_type": "U",
        "meta_norad_cat_id": 66892,
        "meta_element_set_no": 999,
        "meta_rev_at_epoch": 377,
        "meta_bstar": -0.00020785,
        "meta_mean_motion_dot": -0.00030975,
        "meta_mean_motion_ddot": 0,
        "tle_line1": "1 66892U 25283Q   25355.50002315 -.00030975  00000+0 -20785-3 0  9997",
        "tle_line2": "2 66892  53.1574  29.8871 0001288  80.4583  58.2771 15.74202013  3772"
      },
      "geometry": {
        "type": "Point",
        "coordinates": [
          -143.61048390721314,
          -9.868431529387177
        ]
      }
    },
    {
      "type": "Feature",
      "properties": {
        "norad_id": 66893,
        "name": "STARLINK-36033",
        "group": "last-30-days",
        "lat": -11.390230654960842,
        "lon": -142.4208363420949,
        "alt_km": 349.4463507182445,
        "timestamp": "2025-12-21T16:47:53.451080+00:00",
        "meta_object_name": "STARLINK-36033",
        "meta_object_id": "2025-283R",
        "meta_epoch": "2025-12-21T12:00:02.000160",
        "meta_mean_motion": 15.74199361,
        "meta_eccentricity": 0.0001104,
        "meta_inclination": 53.1573,
        "meta_ra_of_asc_node": 29.8835,
        "meta_arg_of_pericenter": 84.2174,
        "meta_mean_anomaly": 56.4423,
        "meta_ephemeris_type": 0,
        "meta_classification_type": "U",
        "meta_norad_cat_id": 66893,
        "meta_element_set_no": 999,
        "meta_rev_at_epoch": 383,
        "meta_bstar": -0.00015112,
        "meta_mean_motion_dot": -0.00022711,
        "meta_mean_motion_ddot": 0,
        "tle_line1": "1 66893U 25283R   25355.50002315 -.00022711  00000+0 -15112-3 0  9995",
        "tle_line2": "2 66893  53.1573  29.8835 0001104  84.2174  56.4423 15.74199361  3839"
      },
      "geometry": {
        "type": "Point",
        "coordinates": [
          -142.4208363420949,
          -11.390230654960842
        ]
      }
    },
    {
      "type": "Feature",
      "properties": {
        "norad_id": 66894,
        "name": "STARLINK-35718",
        "group": "last-30-days",
        "lat": -12.888409648986034,
        "lon": -141.23340223648793,
        "alt_km": 349.7106525916279,
        "timestamp": "2025-12-21T16:47:53.451092+00:00",
        "meta_object_name": "STARLINK-35718",
        "meta_object_id": "2025-283S",
        "meta_epoch": "2025-12-21T12:00:02.000160",
        "meta_mean_motion": 15.74179147,
        "meta_eccentricity": 0.0001065,
        "meta_inclination": 53.1573,
        "meta_ra_of_asc_node": 29.8799,
        "meta_arg_of_pericenter": 77.3937,
        "meta_mean_anomaly": 65.1745,
        "meta_ephemeris_type": 0,
        "meta_classification_type": "U",
        "meta_norad_cat_id": 66894,
        "meta_element_set_no": 999,
        "meta_rev_at_epoch": 383,
        "meta_bstar": 0.0001007,
        "meta_mean_motion_dot": 0.00014137,
        "meta_mean_motion_ddot": 0,
        "tle_line1": "1 66894U 25283S   25355.50002315  .00014137  00000+0  10070-3 0  9995",
        "tle_line2": "2 66894  53.1573  29.8799 0001065  77.3937  65.1745 15.74179147  3839"
      },
      "geometry": {
        "type": "Point",
        "coordinates": [
          -141.23340223648793,
          -12.888409648986034
        ]
      }
    },
    {
      "type": "Feature",
      "properties": {
        "norad_id": 66895,
        "name": "STARLINK-35971",
        "group": "last-30-days",
        "lat": -15.908140687828672,
        "lon": -138.78274654401758,
        "alt_km": 349.9204766070088,
        "timestamp": "2025-12-21T16:47:53.451104+00:00",
        "meta_object_name": "STARLINK-35971",
        "meta_object_id": "2025-283T",
        "meta_epoch": "2025-12-21T12:00:02.000160",
        "meta_mean_motion": 15.74191174,
        "meta_eccentricity": 0.000121,
        "meta_inclination": 53.1576,
        "meta_ra_of_asc_node": 29.8703,
        "meta_arg_of_pericenter": 90.0981,
        "meta_mean_anomaly": 56.3092,
        "meta_ephemeris_type": 0,
        "meta_classification_type": "U",
        "meta_norad_cat_id": 66895,
        "meta_element_set_no": 999,
        "meta_rev_at_epoch": 383,
        "meta_bstar": 1.0061e-05,
        "meta_mean_motion_dot": 8.44e-06,
        "meta_mean_motion_ddot": 0,
        "tle_line1": "1 66895U 25283T   25355.50002315  .00000844  00000+0  10061-4 0  9997",
        "tle_line2": "2 66895  53.1576  29.8703 0001210  90.0981  56.3092 15.74191174  3832"
      },
      "geometry": {
        "type": "Point",
        "coordinates": [
          -138.78274654401758,
          -15.908140687828672
        ]
      }
    },
    {
      "type": "Feature",
      "properties": {
        "norad_id": 66896,
        "name": "STARLINK-35791",
        "group": "last-30-days",
        "lat": -14.40596898471634,
        "lon": -140.01287643091385,
        "alt_km": 349.7176342452776,
        "timestamp": "2025-12-21T16:47:53.451114+00:00",
        "meta_object_name": "STARLINK-35791",
        "meta_object_id": "2025-283U",
        "meta_epoch": "2025-12-21T12:00:02.000160",
        "meta_mean_motion": 15.74203452,
        "meta_eccentricity": 0.0001012,
        "meta_inclination": 53.1573,
        "meta_ra_of_asc_node": 29.8749,
        "meta_arg_of_pericenter": 88.9796,
        "meta_mean_anomaly": 55.5066,
        "meta_ephemeris_type": 0,
        "meta_classification_type": "U",
        "meta_norad_cat_id": 66896,
        "meta_element_set_no": 999,
        "meta_rev_at_epoch": 383,
        "meta_bstar": -0.0001816,
        "meta_mean_motion_dot": -0.00027155,
        "meta_mean_motion_ddot": 0,
        "tle_line1": "1 66896U 25283U   25355.50002315 -.00027155  00000+0 -18160-3 0  9991",
        "tle_line2": "2 66896  53.1573  29.8749 0001012  88.9796  55.5066 15.74203452  3835"
      },
      "geometry": {
        "type": "Point",
        "coordinates": [
          -140.01287643091385,
          -14.40596898471634
        ]
      }
    },
    {
      "type": "Feature",
      "properties": {
        "norad_id": 66897,
        "name": "STARLINK-36079",
        "group": "last-30-days",
        "lat": -17.399717656847596,
        "lon": -137.5354084570188,
        "alt_km": 350.12604893257867,
        "timestamp": "2025-12-21T16:47:53.451128+00:00",
        "meta_object_name": "STARLINK-36079",
        "meta_object_id": "2025-283V",
        "meta_epoch": "2025-12-21T12:00:02.000160",
        "meta_mean_motion": 15.74198069,
        "meta_eccentricity": 0.0001196,
        "meta_inclination": 53.1574,
        "meta_ra_of_asc_node": 29.8671,
        "meta_arg_of_pericenter": 87.5317,
        "meta_mean_anomaly": 60.7892,
        "meta_ephemeris_type": 0,
        "meta_classification_type": "U",
        "meta_norad_cat_id": 66897,
        "meta_element_set_no": 999,
        "meta_rev_at_epoch": 383,
        "meta_bstar": -0.00017556,
        "meta_mean_motion_dot": -0.00026271,
        "meta_mean_motion_ddot": 0,
        "tle_line1": "1 66897U 25283V   25355.50002315 -.00026271  00000+0 -17556-3 0  9998",
        "tle_line2": "2 66897  53.1574  29.8671 0001196  87.5317  60.7892 15.74198069  3830"
      },
      "geometry": {
        "type": "Point",
        "coordinates": [
          -137.5354084570188,
          -17.399717656847596
        ]
      }
    }
  ]
}